QIANFAN-73              
1 63159U 25046A   25332.60714081  .00000047  00000+0  53730-4 0  9995
2 63159  88.9752 321.4868 0015456 157.9754 202.2065 13.50974285 45501
QIANFAN-74              
1 63160U 25046B   25332.59057204  .00000048  00000+0  56313-4 0  9993
2 63160  88.9753 321.3771 0001989  83.7263 276.4114 13.50976415 45564
QIANFAN-75              
1 63161U 25046C   25332.57785920  .00000104  00000+0  14238-3 0  9997
2 63161  88.9754 321.6118 0016468 161.5166 198.6587 13.50990377 45437
QIANFAN-76              
1 63162U 25046D   25332.57433373 -.00000119  00000+0 -20335-3 0  9993
2 63162  88.9748 321.5931 0013996 161.2478 198.9192 13.50963999 45445
QIANFAN-77              
1 63163U 25046E   25332.63771567  .00000155  00000+0  10276-3 0  9992
2 63163  88.9755 319.7088 0016549 120.2910 239.9907 13.96078014 46489
QIANFAN-78              
1 63164U 25046F   25332.61534343  .00000006  00000+0 -95227-5 0  9997
2 63164  88.9748 321.4528 0015309 163.9611 196.2028 13.50974644 45523
QIANFAN-79              
1 63165U 25046G   25332.56995725  .00000041  00000+0  44985-4 0  9999
2 63165  88.9757 321.5645 0015069 162.0624 198.1062 13.50975879 45465
QIANFAN-80              
1 63166U 25046H   25332.58644781  .00000042  00000+0  46745-4 0  9992
2 63166  88.9755 321.2699 0013899 165.5196 194.6356 13.50972555 45624
